ONEWEB-0512             
1 54130U 22138T   25307.82918771  .00000094  00000+0  20340-3 0  9993
2 54130  87.9224 349.8193 0001980 108.4769 251.6579 13.19725838147089
ONEWEB-0513             
1 54131U 22138U   25307.92793267  .00000090  00000+0  19142-3 0  9990
2 54131  87.9249 349.7605 0001727 115.8411 244.2901 13.20318027146995
ONEWEB-0514             
1 54132U 22138V   25307.84498808  .00000056  00000+0  10739-3 0  9990
2 54132  87.9237 349.7975 0001802  93.8490 266.2849 13.19724948147109
ONEWEB-0515             
1 54133U 22138W   25307.96968633  .00000179  00000+0  40943-3 0  9998
2 54133  87.9192 319.3379 0002401  72.6132 287.5264 13.20772684149577
ONEWEB-0516             
1 54134U 22138X   25307.81971169  .00000120  00000+0  26658-3 0  9994
2 54134  87.9226 349.8258 0002024  97.9446 262.1916 13.19725863147104
ONEWEB-0517             
1 54135U 22138Y   25307.42009554  .00000011  00000+0 -47937-5 0  9997
2 54135  87.9250 349.8789 0001610  99.0953 261.0362 13.19724644147050
ONEWEB-0518             
1 54136U 22138Z   25307.81813510 -.00000065  00000+0 -19503-3 0  9992
2 54136  87.9234 349.8280 0002037 100.2045 259.9317 13.19725566147106
ONEWEB-0519             
1 54137U 22138AA  25307.84340740  .00000060  00000+0  11725-3 0  9997
2 54137  87.9244 349.7861 0001656  99.6828 260.4492 13.19725349147119
